{"type": "FeatureCollection", "features": [ {"type": "Feature", "properties": {"norad_id": 64901, "name": "CO3D 4", "group": "resource", "lat": -59.78643800157564, "lon": -139.63323464334076, "alt_km": 511.5701343579731, "timestamp": "2025-12-02T19:35:50.219879+00:00", "meta": {"OBJECT_NAME": "CO3D 4", "OBJECT_ID": "2025-156C", "EPOCH": "2025-12-01T18:50:45.474720", "MEAN_MOTION": 15.20204195, "ECCENTRICITY": 0.00012108, "INCLINATION": 97.4354, "RA_OF_ASC_NODE": 52.3098, "ARG_OF_PERICENTER": 238.3057, "MEAN_ANOMALY": 121.806, "EPHEMERIS_TYPE": 0, "CLASSIFICATION_TYPE": "U", "NORAD_CAT_ID": 64901, "ELEMENT_SET_NO": 999, "REV_AT_EPOCH": 1954, "BSTAR": -1.4420799e-05, "MEAN_MOTION_DOT": -3.8e-06, "MEAN_MOTION_DDOT": 0}, "tle": {"line1": "1 64901U 25156C   25335.78524855 -.00000380  00000+0 -14421-4 0  9999", "line2": "2 64901  97.4354  52.3098 0001210 238.3057 121.8060 15.20204195 19549"}}, "geometry": {"type": "Point", "coordinates": [-139.63323464334076, -59.78643800157564]}}, {"type": "Feature", "properties": {"norad_id": 64902, "name": "CO3D 2", "group": "resource", "lat": 61.93764195189439, "lon": 39.04500444224401, "alt_km": 498.7806010356635, "timestamp": "2025-12-02T19:35:50.219889+00:00", "meta": {"OBJECT_NAME": "CO3D 2", "OBJECT_ID": "2025-156D", "EPOCH": "2025-12-02T11:25:22.907712", "MEAN_MOTION": 15.20201776, "ECCENTRICITY": 9.86e-05, "INCLINATION": 97.4353, "RA_OF_ASC_NODE": 52.8893, "ARG_OF_PERICENTER": 114.2965, "MEAN_ANOMALY": 245.8373, "EPHEMERIS_TYPE": 0, "CLASSIFICATION_TYPE": "U", "NORAD_CAT_ID": 64902, "ELEMENT_SET_NO": 999, "REV_AT_EPOCH": 1964, "BSTAR": 0.00036797, "MEAN_MOTION_DOT": 7.906e-05, "MEAN_MOTION_DDOT": 0}, "tle": {"line1": "1 64902U 25156D   25336.47595958  .00007906  00000+0  36797-3 0  9997", "line2": "2 64902  97.4353  52.8893 0000986 114.2965 245.8373 15.20201776 19643"}}, "geometry": {"type": "Point", "coordinates": [39.04500444224401, 61.93764195189439]}}, {"type": "Feature", "properties": {"norad_id": 64903, "name": "CO3D 1", "group": "resource", "lat": 61.135374820894334, "lon": 39.519943577755136, "alt_km": 498.856283827693, "timestamp": "2025-12-02T19:35:50.219899+00:00", "meta": {"OBJECT_NAME": "CO3D 1", "OBJECT_ID": "2025-156E", "EPOCH": "2025-12-02T11:25:36.183072", "MEAN_MOTION": 15.20207711, "ECCENTRICITY": 0.0001039, "INCLINATION": 97.4356, "RA_OF_ASC_NODE": 52.8896, "ARG_OF_PERICENTER": 117.2186, "MEAN_ANOMALY": 242.9155, "EPHEMERIS_TYPE": 0, "CLASSIFICATION_TYPE": "U", "NORAD_CAT_ID": 64903, "ELEMENT_SET_NO": 999, "REV_AT_EPOCH": 1964, "BSTAR": 0.00055204, "MEAN_MOTION_DOT": 0.00011904, "MEAN_MOTION_DDOT": 0}, "tle": {"line1": "1 64903U 25156E   25336.47611323  .00011904  00000+0  55204-3 0  9990", "line2": "2 64903  97.4356  52.8896 0001039 117.2186 242.9155 15.20207711 19649"}}, "geometry": {"type": "Point", "coordinates": [39.519943577755136, 61.135374820894334]}}, {"type": "Feature", "properties": {"norad_id": 66514, "name": "SENTINEL-6B", "group": "resource", "lat": -33.72720950674188, "lon": 165.8807625641175, "alt_km": 1317.9001578018533, "timestamp": "2025-12-02T19:35:50.219910+00:00", "meta": {"OBJECT_NAME": "SENTINEL-6B", "OBJECT_ID": "2025-264A", "EPOCH": "2025-12-02T12:19:29.316000", "MEAN_MOTION": 12.85877401, "ECCENTRICITY": 0.0011523, "INCLINATION": 66.0387, "RA_OF_ASC_NODE": 183.7849, "ARG_OF_PERICENTER": 268.7805, "MEAN_ANOMALY": 91.1893, "EPHEMERIS_TYPE": 0, "CLASSIFICATION_TYPE": "U", "NORAD_CAT_ID": 66514, "ELEMENT_SET_NO": 999, "REV_AT_EPOCH": 197, "BSTAR": 0.00033559, "MEAN_MOTION_DOT": 2.1e-07, "MEAN_MOTION_DDOT": 0}, "tle": {"line1": "1 66514U 25264A   25336.51353375  .00000021  00000+0  33559-3 0  9992", "line2": "2 66514  66.0387 183.7849 0011523 268.7805  91.1893 12.85877401  1973"}}, "geometry": {"type": "Point", "coordinates": [165.8807625641175, -33.72720950674188]}}]}